OBJECT_NAME,OBJECT_ID,EPOCH,MEAN_MOTION,ECCENTRICITY,INCLINATION,RA_OF_ASC_NODE,ARG_OF_PERICENTER,MEAN_ANOMALY,EPHEMERIS_TYPE,CLASSIFICATION_TYPE,NORAD_CAT_ID,ELEMENT_SET_NO,REV_AT_EPOCH,BSTAR,MEAN_MOTION_DOT,MEAN_MOTION_DDOT
IONOSFERA-M 2,2024-199B,2026-06-10T14:49:08.809248,14.22756261,.00013094,98.7181,34.7695,44.4589,315.6694,0,U,61736,999,12989,.33540494E-4,.31E-6,0
BIOMASS,2025-090A,2026-06-10T11:42:43.060896,14.67534544,.0001368,98.0741,348.9022,91.2144,268.9217,0,U,63772,999,5970,.17494676E-3,.944E-5,0
GOSAT-GW (IBUKI GW),2025-141A,2026-06-10T13:50:13.682400,14.67554070,.00014416,98.0569,99.0012,84.6234,275.5136,0,U,64694,999,5087,.11510606E-3,.605E-5,0
IONOSFERA-M 3,2025-155A,2026-06-10T15:06:09.486144,14.21485339,.00006126,98.6022,123.6995,169.5911,190.5280,0,U,64876,999,4547,.35216822E-4,.34E-6,0
IONOSFERA-M 4,2025-155B,2026-06-10T14:14:59.119584,14.21487543,.00008179,98.6021,123.5823,118.4493,241.6767,0,U,64877,999,4546,.3684116E-4,.38E-6,0
MICROCARB,2025-156A,2026-06-10T05:13:32.435328,14.72318385,.00150646,97.9831,238.4794,296.6210,63.3453,0,U,64899,999,4694,.74718267E-4,.423E-5,0
CO3D 3,2025-156B,2026-06-10T12:56:55.502592,15.20207301,.00012002,97.4329,240.3281,136.7367,223.3962,0,U,64900,999,4852,.17831237E-3,.3795E-4,0
CO3D 4,2025-156C,2026-06-10T12:57:08.099712,15.20212417,.00005638,97.4331,240.3278,28.1943,331.9322,0,U,64901,999,4852,.16617958E-4,.292E-5,0
CO3D 2,2025-156D,2026-06-10T12:09:07.826976,15.20206381,.00014039,97.4327,240.1943,115.1978,244.9403,0,U,64902,999,4851,.54886544E-3,.11835E-3,0
CO3D 1,2025-156E,2026-06-10T12:09:20.478528,15.20209496,.00012414,97.4329,240.1946,117.1866,242.9496,0,U,64903,999,4851,.19820328E-3,.4226E-4,0
PRSC-S1,2025-164A,2026-06-10T12:02:11.213952,15.06396492,.00074318,41.1314,325.4642,303.9187,56.0919,0,U,65055,999,4742,.3147212E-3,.4545E-4,0
SENTINEL-6B,2025-264A,2026-06-10T07:02:14.690976,12.80929851,.00080393,66.0387,149.4973,269.2152,90.7942,0,U,66514,999,2628,.15364028E-3,-.26E-6,0
CAS500-3,2025-274F,2026-06-10T13:25:24.919680,14.88304946,.00064232,97.7447,89.7613,127.6393,232.5408,0,U,66655,999,2916,.12606278E-3,.1112E-4,0
CSG-3,2026-001A,2026-06-10T12:22:17.553216,14.82149189,.00013261,97.8886,345.2138,94.5463,265.5902,0,U,67304,999,2347,.40515385E-4,.27E-5,0
PRSC-E03,2026-092A,2026-06-10T15:02:44.173824,15.06636113,.00048226,37.9997,128.3639,317.2532,42.7854,0,U,68835,999,696,.14976264E-3,.2154E-4,0
CAS500-2,2026-100AK,2026-06-10T10:33:19.659168,15.20510391,.00112302,97.4085,59.4110,55.5432,304.6863,0,U,69013,999,578,.2637282E-3,.5706E-4,0
