0 IONOSFERA-M 02
1 61736U 24199B   26161.61746307  .00000031  00000-0  33540-4 0  9991
2 61736  98.7181  34.7695 0001309  44.4589 315.6694 14.22756261129899
0 BIOMASS
1 63772U 25090A   26161.48799839  .00000944  00000-0  17495-3 0  9990
2 63772  98.0741 348.9022 0001368  91.2144 268.9217 14.67534544 59702
0 GOSAT-GW
1 64694U 25141A   26161.57654725  .00000605  00000-0  11511-3 0  9992
2 64694  98.0569  99.0012 0001442  84.6234 275.5136 14.67554070 50875
0 IONOSFERA-M 03
1 64876U 25155A   26161.62927646  .00000034  00000-0  35217-4 0  9996
2 64876  98.6022 123.6995 0000613 169.5911 190.5280 14.21485339 45472
0 IONOSFERA-M 04
1 64877U 25155B   26161.59373981  .00000038  00000-0  36841-4 0  9998
2 64877  98.6021 123.5823 0000818 118.4493 241.6767 14.21487543 45462
0 CARB
1 64899U 25156A   26161.21773652  .00000423  00000-0  74718-4 0  9994
2 64899  97.9831 238.4794 0015065 296.6210  63.3453 14.72318385 46944
0 CO3D3
1 64900U 25156B   26161.53953128  .00003795  00000-0  17831-3 0  9997
2 64900  97.4329 240.3281 0001200 136.7367 223.3962 15.20207301 48528
0 CO3D4
1 64901U 25156C   26161.53967708  .00000292  00000-0  16618-4 0  9999
2 64901  97.4331 240.3278 0000564  28.1943 331.9322 15.20212417 48524
0 CO3D2
1 64902U 25156D   26161.50634059  .00011835  00000-0  54887-3 0  9991
2 64902  97.4327 240.1943 0001404 115.1978 244.9403 15.20206381 48511
0 CO3D1
1 64903U 25156E   26161.50648702  .00004226  00000-0  19820-3 0  9996
2 64903  97.4329 240.1946 0001241 117.1866 242.9496 15.20209496 48514
0 PRSC-S1
1 65055U 25164A   26161.50151868  .00004545  00000-0  31472-3 0  9997
2 65055  41.1314 325.4642 0007432 303.9187  56.0919 15.06396492 47422
0 SENTINEL-6B
1 66514U 25264A   26161.29322559 -.00000026  00000-0  15364-3 0  9995
2 66514  66.0387 149.4973 0008039 269.2152  90.7942 12.80929851 26282
0 CAS500-3
1 66655U 25274F   26161.55931620  .00001112  00000-0  12606-3 0  9998
2 66655  97.7447  89.7613 0006423 127.6393 232.5408 14.88304946 29167
0 COSMO-SKYMED-FM3
1 67304U 26001A   26161.51548094  .00000270  00000-0  40515-4 0  9999
2 67304  97.8886 345.2138 0001326  94.5463 265.5902 14.82149189 23479
0 PRSC-E03
1 68835U 26092A   26161.62690016  .00002154  00000-0  14976-3 0  9997
2 68835  37.9997 128.3639 0004823 317.2532  42.7854 15.06636113  6961
0 CAS500-2
1 69013U 26100AK  26161.43981087  .00005706  00000-0  26373-3 0  9996
2 69013  97.4085  59.4110 0011230  55.5432 304.6863 15.20510391  5782
